[{"OBJECT_NAME":"JILIN-1 07","OBJECT_ID":"2018-008E","EPOCH":"2026-03-09T22:24:26.445888","MEAN_MOTION":15.32987507,"ECCENTRICITY":0.00101791,"INCLINATION":97.1876,"RA_OF_ASC_NODE":91.5817,"ARG_OF_PERICENTER":62.7832,"MEAN_ANOMALY":297.4447,"EPHEMERIS_TYPE":0,"CLASSIFICATION_TYPE":"U","NORAD_CAT_ID":43159,"ELEMENT_SET_NO":999,"REV_AT_EPOCH":44978,"BSTAR":0.00036439521,"MEAN_MOTION_DOT":0.00011559,"MEAN_MOTION_DDOT":0},{"OBJECT_NAME":"STARLINK-35441","OBJECT_ID":"2025-223R","EPOCH":"2026-03-09T21:27:37.342080","MEAN_MOTION":15.30195204,"ECCENTRICITY":0.00012387,"INCLINATION":53.159,"RA_OF_ASC_NODE":293.4604,"ARG_OF_PERICENTER":71.0703,"MEAN_ANOMALY":289.0432,"EPHEMERIS_TYPE":0,"CLASSIFICATION_TYPE":"U","NORAD_CAT_ID":65869,"ELEMENT_SET_NO":999,"REV_AT_EPOCH":2423,"BSTAR":0.00077016075,"MEAN_MOTION_DOT":0.00022517,"MEAN_MOTION_DDOT":0}]
